ONEWEB-0291             
1 49081U 21075G   26191.39975215  .00000086  00000+0  18960-3 0  9997
2 49081  87.9138   1.2442 0002154  85.5647 274.5731 13.17646726236665
ONEWEB-0293             
1 49082U 21075H   26191.42505426  .00000053  00000+0  10244-3 0  9996
2 49082  87.9132   1.2417 0001986  92.6934 267.4425 13.17650176236690
ONEWEB-0294             
1 49083U 21075J   26190.66798051  .00000246  00000+0  64953-3 0  9990
2 49083  87.8963 346.1890 0002150  99.4647 260.6725 13.12442268237525
ONEWEB-0295             
1 49084U 21075K   26191.42421704  .00000026  00000+0  33968-4 0  9993
2 49084  87.9137   1.2458 0002059  84.2425 275.8941 13.17649743236656
ONEWEB-0296             
1 49085U 21075L   26190.72389160  .00000473  00000+0  12781-2 0  9999
2 49085  87.8967 346.1863 0002111  88.0069 272.1302 13.12443740237536
ONEWEB-0297             
1 49086U 21075M   26191.44051299 -.00000029  00000+0 -11673-3 0  9998
2 49086  87.8952 346.0512 0001868  92.1527 267.9816 13.12441333238230
ONEWEB-0298             
1 49087U 21075N   26191.42858873  .00000067  00000+0  13977-3 0  9999
2 49087  87.9137   1.2435 0001747  88.8317 271.3015 13.17648471236680
ONEWEB-0299             
1 49088U 21075P   26190.74669102  .00000017  00000+0  11671-4 0  9994
2 49088  87.9146   1.3614 0001894  86.5254 273.6095 13.17647788236570
ONEWEB-0300             
1 49089U 21075Q   26191.43289213  .00000253  00000+0  66888-3 0  9994
2 49089  87.8964 346.0351 0001475  90.6395 269.4903 13.12441606238256
ONEWEB-0301             
1 49090U 21075R   26191.41679872  .00000482  00000+0  13043-2 0  9996
2 49090  87.8962 346.0355 0001490  98.0696 262.0602 13.12443190237617
ONEWEB-0302             
1 49091U 21075S   26191.40324500  .00000127  00000+0  31883-3 0  9990
2 49091  87.8959 346.0510 0002181  95.4531 264.6847 13.12442330237595
ONEWEB-0304             
1 49092U 21075T   26191.40480210  .00000050  00000+0  94755-4 0  9995
2 49092  87.9141   1.2510 0001979  87.0895 273.0463 13.17647915236637
ONEWEB-0305             
1 49093U 21075U   26190.71462740  .00000031  00000+0  46542-4 0  9997
2 49093  87.9146   1.3743 0002018  80.3165 279.8195 13.17647664236573
ONEWEB-0308             
1 49094U 21075V   26191.39646108 -.00000053  00000+0 -18279-3 0  9996
2 49094  87.8960 346.0451 0001842  97.3959 262.7379 13.12443574237604
ONEWEB-0309             
1 49095U 21075W   26190.71800580  .00000091  00000+0  20183-3 0  9995
2 49095  87.9137   1.3801 0002342  95.5376 264.6022 13.17650755236545
ONEWEB-0310             
1 49096U 21075X   26191.41171619  .00000447  00000+0  12083-2 0  9992
2 49096  87.8952 346.0607 0001811  95.5100 264.6235 13.12443691238236
